[{"OBJECT_NAME":"STARLINK-3714","OBJECT_ID":"2022-029G","EPOCH":"2026-03-09T11:28:41.153376","MEAN_MOTION":15.08824496,"ECCENTRICITY":0.00013732,"INCLINATION":53.2183,"RA_OF_ASC_NODE":90.0768,"ARG_OF_PERICENTER":64.3264,"MEAN_ANOMALY":295.787,"EPHEMERIS_TYPE":0,"CLASSIFICATION_TYPE":"U","NORAD_CAT_ID":52094,"ELEMENT_SET_NO":999,"REV_AT_EPOCH":22062,"BSTAR":2.6381353e-5,"MEAN_MOTION_DOT":1.32e-6,"MEAN_MOTION_DDOT":0},{"OBJECT_NAME":"LEMUR-2-SIERRINI","OBJECT_ID":"2024-149DR","EPOCH":"2026-03-09T19:24:50.445216","MEAN_MOTION":15.08682764,"ECCENTRICITY":0.00065795,"INCLINATION":97.6873,"RA_OF_ASC_NODE":151.1225,"ARG_OF_PERICENTER":147.8458,"MEAN_ANOMALY":212.3173,"EPHEMERIS_TYPE":0,"CLASSIFICATION_TYPE":"U","NORAD_CAT_ID":60579,"ELEMENT_SET_NO":999,"REV_AT_EPOCH":8546,"BSTAR":0.00092040134,"MEAN_MOTION_DOT":0.00014386,"MEAN_MOTION_DDOT":0}]
