STARLINK-3714           
1 52094U 22029G   26068.47825409  .00000132  00000+0  26381-4 0  9995
2 52094  53.2183  90.0768 0001373  64.3264 295.7870 15.08824496220620
LEMUR-2-SIERRINI        
1 60579U 24149DR  26068.80891719  .00014386  00000+0  92040-3 0  9991
2 60579  97.6873 151.1225 0006580 147.8458 212.3173 15.08682764 85461
